[{"OBJECT_NAME":"GPS BIIR-08","OBJECT_ID":"2003-005A","EPOCH":"2026-03-05T03:45:11.520576","MEAN_MOTION":2.00566245,"ECCENTRICITY":0.0148735,"INCLINATION":54.9072,"RA_OF_ASC_NODE":219.0997,"ARG_OF_PERICENTER":52.7224,"MEAN_ANOMALY":131.3819,"EPHEMERIS_TYPE":0,"CLASSIFICATION_TYPE":"U","NORAD_CAT_ID":27663,"ELEMENT_SET_NO":999,"REV_AT_EPOCH":16922,"BSTAR":0,"MEAN_MOTION_DOT":7.0e-8,"MEAN_MOTION_DDOT":0},{"OBJECT_NAME":"GPS BIIR-11","OBJECT_ID":"2004-009A","EPOCH":"2026-03-04T10:16:30.113184","MEAN_MOTION":2.00558098,"ECCENTRICITY":0.01109612,"INCLINATION":54.9157,"RA_OF_ASC_NODE":279.9188,"ARG_OF_PERICENTER":169.067,"MEAN_ANOMALY":5.0968,"EPHEMERIS_TYPE":0,"CLASSIFICATION_TYPE":"U","NORAD_CAT_ID":28190,"ELEMENT_SET_NO":999,"REV_AT_EPOCH":16084,"BSTAR":0,"MEAN_MOTION_DOT":-2.0e-7,"MEAN_MOTION_DDOT":0},{"OBJECT_NAME":"GPS BIIR-13","OBJECT_ID":"2004-045A","EPOCH":"2026-03-05T03:30:46.121760","MEAN_MOTION":2.0057346,"ECCENTRICITY":0.01708402,"INCLINATION":55.1943,"RA_OF_ASC_NODE":329.0893,"ARG_OF_PERICENTER":312.8581,"MEAN_ANOMALY":83.3458,"EPHEMERIS_TYPE":0,"CLASSIFICATION_TYPE":"U","NORAD_CAT_ID":28474,"ELEMENT_SET_NO":999,"REV_AT_EPOCH":15634,"BSTAR":0,"MEAN_MOTION_DOT":-9.4e-7,"MEAN_MOTION_DDOT":0},{"OBJECT_NAME":"GPS BIIR-14M","OBJECT_ID":"2005-038A","EPOCH":"2026-03-04T15:53:49.820352","MEAN_MOTION":2.00572995,"ECCENTRICITY":0.0128798,"INCLINATION":54.9628,"RA_OF_ASC_NODE":277.3946,"ARG_OF_PERICENTER":295.3469,"MEAN_ANOMALY":71.7592,"EPHEMERIS_TYPE":0,"CLASSIFICATION_TYPE":"U","NORAD_CAT_ID":28874,"ELEMENT_SET_NO":999,"REV_AT_EPOCH":14974,"BSTAR":0,"MEAN_MOTION_DOT":-1.8e-7,"MEAN_MOTION_DDOT":0},{"OBJECT_NAME":"METEOSAT-9 (MSG-2)","OBJECT_ID":"2005-049B","EPOCH":"2026-03-05T01:48:38.708928","MEAN_MOTION":1.00277671,"ECCENTRICITY":0.00017121,"INCLINATION":9.1265,"RA_OF_ASC_NODE":55.1755,"ARG_OF_PERICENTER":222.7266,"MEAN_ANOMALY":317.8188,"EPHEMERIS_TYPE":0,"CLASSIFICATION_TYPE":"U","NORAD_CAT_ID":28912,"ELEMENT_SET_NO":999,"REV_AT_EPOCH":595,"BSTAR":0,"MEAN_MOTION_DOT":1.18e-6,"MEAN_MOTION_DDOT":0},{"OBJECT_NAME":"GPS BIIR-16M","OBJECT_ID":"2006-052A","EPOCH":"2026-03-04T17:05:51.360864","MEAN_MOTION":2.00551664,"ECCENTRICITY":0.00878639,"INCLINATION":54.9572,"RA_OF_ASC_NODE":218.1449,"ARG_OF_PERICENTER":89.3643,"MEAN_ANOMALY":271.5921,"EPHEMERIS_TYPE":0,"CLASSIFICATION_TYPE":"U","NORAD_CAT_ID":29601,"ELEMENT_SET_NO":999,"REV_AT_EPOCH":14131,"BSTAR":0,"MEAN_MOTION_DOT":2.0e-8,"MEAN_MOTION_DDOT":0},{"OBJECT_NAME":"GPS BIIR-17M","OBJECT_ID":"2007-047A","EPOCH":"2026-03-05T00:27:38.494656","MEAN_MOTION":2.00560713,"ECCENTRICITY":0.01636084,"INCLINATION":54.0162,"RA_OF_ASC_NODE":84.358,"ARG_OF_PERICENTER":85.964,"MEAN_ANOMALY":275.961,"EPHEMERIS_TYPE":0,"CLASSIFICATION_TYPE":"U","NORAD_CAT_ID":32260,"ELEMENT_SET_NO":999,"REV_AT_EPOCH":13472,"BSTAR":0,"MEAN_MOTION_DOT":-8.0e-8,"MEAN_MOTION_DDOT":0},{"OBJECT_NAME":"GPS BIIR-18M","OBJECT_ID":"2007-062A","EPOCH":"2026-03-05T01:58:32.191392","MEAN_MOTION":2.00553591,"ECCENTRICITY":0.00329456,"INCLINATION":55.1143,"RA_OF_ASC_NODE":278.3362,"ARG_OF_PERICENTER":160.6669,"MEAN_ANOMALY":12.9552,"EPHEMERIS_TYPE":0,"CLASSIFICATION_TYPE":"U","NORAD_CAT_ID":32384,"ELEMENT_SET_NO":999,"REV_AT_EPOCH":13342,"BSTAR":0,"MEAN_MOTION_DOT":-2.0e-7,"MEAN_MOTION_DDOT":0},{"OBJECT_NAME":"GOES 14","OBJECT_ID":"2009-033A","EPOCH":"2026-03-05T06:23:46.517568","MEAN_MOTION":1.00124871,"ECCENTRICITY":0.00023017,"INCLINATION":1.4211,"RA_OF_ASC_NODE":84.4101,"ARG_OF_PERICENTER":300.2805,"MEAN_ANOMALY":75.6316,"EPHEMERIS_TYPE":0,"CLASSIFICATION_TYPE":"U","NORAD_CAT_ID":35491,"ELEMENT_SET_NO":999,"REV_AT_EPOCH":555,"BSTAR":0,"MEAN_MOTION_DOT":1.19e-6,"MEAN_MOTION_DDOT":0},{"OBJECT_NAME":"GOES 15","OBJECT_ID":"2010-008A","EPOCH":"2026-03-05T04:29:38.736096","MEAN_MOTION":1.00269479,"ECCENTRICITY":0.0001932,"INCLINATION":1.0108,"RA_OF_ASC_NODE":85.1296,"ARG_OF_PERICENTER":19.6467,"MEAN_ANOMALY":189.0339,"EPHEMERIS_TYPE":0,"CLASSIFICATION_TYPE":"U","NORAD_CAT_ID":36411,"ELEMENT_SET_NO":999,"REV_AT_EPOCH":5859,"BSTAR":0,"MEAN_MOTION_DOT":1.3e-7,"MEAN_MOTION_DDOT":0},{"OBJECT_NAME":"GSAT0101 (GALILEO-PFM)","OBJECT_ID":"2011-060A","EPOCH":"2026-02-22T11:08:37.810464","MEAN_MOTION":1.70475478,"ECCENTRICITY":0.00039756,"INCLINATION":57.0318,"RA_OF_ASC_NODE":344.8758,"ARG_OF_PERICENTER":357.0591,"MEAN_ANOMALY":2.9533,"EPHEMERIS_TYPE":0,"CLASSIFICATION_TYPE":"U","NORAD_CAT_ID":37846,"ELEMENT_SET_NO":999,"REV_AT_EPOCH":8916,"BSTAR":0,"MEAN_MOTION_DOT":-8.2e-7,"MEAN_MOTION_DDOT":0},{"OBJECT_NAME":"GSAT0102 (GALILEO-FM2)","OBJECT_ID":"2011-060B","EPOCH":"2026-03-01T01:30:59.316192","MEAN_MOTION":1.70475778,"ECCENTRICITY":0.00054225,"INCLINATION":57.0301,"RA_OF_ASC_NODE":344.6971,"ARG_OF_PERICENTER":341.2092,"MEAN_ANOMALY":154.1953,"EPHEMERIS_TYPE":0,"CLASSIFICATION_TYPE":"U","NORAD_CAT_ID":37847,"ELEMENT_SET_NO":999,"REV_AT_EPOCH":8928,"BSTAR":0,"MEAN_MOTION_DOT":-1.06e-6,"MEAN_MOTION_DDOT":0},{"OBJECT_NAME":"LUCH 5A","OBJECT_ID":"2011-074B","EPOCH":"2026-03-05T07:56:45.103776","MEAN_MOTION":1.0027571,"ECCENTRICITY":0.000394,"INCLINATION":8.4896,"RA_OF_ASC_NODE":75.3323,"ARG_OF_PERICENTER":246.4395,"MEAN_ANOMALY":127.5868,"EPHEMERIS_TYPE":0,"CLASSIFICATION_TYPE":"U","NORAD_CAT_ID":37951,"ELEMENT_SET_NO":999,"REV_AT_EPOCH":5201,"BSTAR":0,"MEAN_MOTION_DOT":-5.2e-7,"MEAN_MOTION_DDOT":0},{"OBJECT_NAME":"METEOSAT-10 (MSG-3)","OBJECT_ID":"2012-035B","EPOCH":"2026-03-05T05:26:29.510880","MEAN_MOTION":1.00277685,"ECCENTRICITY":0.00025117,"INCLINATION":4.4256,"RA_OF_ASC_NODE":61.4601,"ARG_OF_PERICENTER":296.4567,"MEAN_ANOMALY":246.9694,"EPHEMERIS_TYPE":0,"CLASSIFICATION_TYPE":"U","NORAD_CAT_ID":38552,"ELEMENT_SET_NO":999,"REV_AT_EPOCH":4981,"BSTAR":0,"MEAN_MOTION_DOT":-1.1e-7,"MEAN_MOTION_DDOT":0},{"OBJECT_NAME":"SARSAT 13 (METOP-B)","OBJECT_ID":"2012-049A","EPOCH":"2026-03-05T05:19:03.998784","MEAN_MOTION":14.21443047,"ECCENTRICITY":0.00012009,"INCLINATION":98.6651,"RA_OF_ASC_NODE":117.7299,"ARG_OF_PERICENTER":290.4699,"MEAN_ANOMALY":69.6349,"EPHEMERIS_TYPE":0,"CLASSIFICATION_TYPE":"U","NORAD_CAT_ID":38771,"ELEMENT_SET_NO":999,"REV_AT_EPOCH":69849,"BSTAR":9.8496098e-5,"MEAN_MOTION_DOT":1.72e-6,"MEAN_MOTION_DDOT":0},{"OBJECT_NAME":"GPS BIIF-3","OBJECT_ID":"2012-053A","EPOCH":"2026-03-04T02:50:27.721824","MEAN_MOTION":2.00565801,"ECCENTRICITY":0.01769354,"INCLINATION":53.5658,"RA_OF_ASC_NODE":147.9052,"ARG_OF_PERICENTER":64.7808,"MEAN_ANOMALY":297.0848,"EPHEMERIS_TYPE":0,"CLASSIFICATION_TYPE":"U","NORAD_CAT_ID":38833,"ELEMENT_SET_NO":999,"REV_AT_EPOCH":9733,"BSTAR":0,"MEAN_MOTION_DOT":6.0e-8,"MEAN_MOTION_DDOT":0},{"OBJECT_NAME":"GSAT0103 (GALILEO-FM3)","OBJECT_ID":"2012-055A","EPOCH":"2026-03-04T11:26:29.886720","MEAN_MOTION":1.70473427,"ECCENTRICITY":0.00054073,"INCLINATION":55.7384,"RA_OF_ASC_NODE":104.4182,"ARG_OF_PERICENTER":285.364,"MEAN_ANOMALY":74.6606,"EPHEMERIS_TYPE":0,"CLASSIFICATION_TYPE":"U","NORAD_CAT_ID":38857,"ELEMENT_SET_NO":999,"REV_AT_EPOCH":8322,"BSTAR":0,"MEAN_MOTION_DOT":1.2e-7,"MEAN_MOTION_DDOT":0}]
